IRIDIUM 39              
1 25042U 97069D   25237.38143054  .00000575  00000+0  14490-3 0  9998
2 25042  86.3973 181.4863 0020148  77.0927 283.2526 14.49289376458984
IRIDIUM 38              
1 25043U 97069E   25237.60813730  .00000381  00000+0  11914-3 0  9992
2 25043  86.3985 203.9567 0001394 144.9911 215.1379 14.38164899455930
IRIDIUM 42              
1 25077U 97077A   25237.42100004  .00000367  00000+0  11880-3 0  9997
2 25077  86.3976 210.2857 0001534  96.8179 263.3193 14.36396473451137
IRIDIUM 44              
1 25078U 97077B   25237.39702825  .00000425  00000+0  12788-3 0  9996
2 25078  86.4007 192.0546 0003342 119.7879 240.3653 14.40289028453665
IRIDIUM 45              
1 25104U 97082A   25237.42269623  .00017586  00000+0  58844-3 0  9999
2 25104  86.3607  14.2074 0113258  72.2706 289.0863 15.24762521462582
IRIDIUM 24              
1 25105U 97082B   25237.55842138  .00000439  00000+0  12730-3 0  9995
2 25105  86.3872  50.8523 0010526 198.6699 161.4117 14.42152402453215
IRIDIUM 51              
1 25262U 98018A   25237.41365708  .00030355  00000+0  58944-3 0  9994
2 25262  86.3838  21.4294 0077599 343.9624  15.9175 15.44166587457691
IRIDIUM 57              
1 25273U 98019B   25237.57948146  .00000280  00000+0  89764-4 0  9996
2 25273  86.3951 116.1952 0002067  88.6326 271.5107 14.35931601434744
